<?xml version="1.0" encoding="UTF-8"?>
<osm version="0.6" generator="openstreetmap-cgimap 2.1.0 (3498759 spike-06.openstreetmap.org)" copyright="OpenStreetMap and contributors" attribution="http://www.openstreetmap.org/copyright" license="http://opendatacommons.org/licenses/odbl/1-0/">
 <node id="1937024387" visible="true" version="1" changeset="13287368" timestamp="2012-09-28T16:48:54Z" user="l@ur3nt" uid="822467" lat="48.0356406" lon="-0.7418938"/>
 <node id="1937024389" visible="true" version="1" changeset="13287368" timestamp="2012-09-28T16:48:54Z" user="l@ur3nt" uid="822467" lat="48.0360567" lon="-0.7422746"/>
 <node id="6860938026" visible="true" version="1" changeset="75423772" timestamp="2019-10-08T16:56:34Z" user="Olyon" uid="1443767" lat="48.0359885" lon="-0.7421149"/>
 <node id="6860938027" visible="true" version="1" changeset="75423772" timestamp="2019-10-08T16:56:34Z" user="Olyon" uid="1443767" lat="48.0359077" lon="-0.7420345"/>
 <way id="732690091" visible="true" version="3" changeset="184447580" timestamp="2026-06-22T19:54:57Z" user="YBau" uid="19282503">
  <nd ref="1937024389"/>
  <nd ref="6860938026"/>
  <nd ref="6860938027"/>
  <nd ref="1937024387"/>
  <tag k="highway" v="raceway"/>
  <tag k="oneway" v="yes"/>
  <tag k="sport" v="karting"/>
  <tag k="surface" v="asphalt"/>
 </way>
</osm>
