<?xml version="1.0" encoding="UTF-8"?>
<osm version="0.6" generator="openstreetmap-cgimap 2.1.0 (3498743 spike-06.openstreetmap.org)" copyright="OpenStreetMap and contributors" attribution="http://www.openstreetmap.org/copyright" license="http://opendatacommons.org/licenses/odbl/1-0/">
 <node id="6860938028" visible="true" version="1" changeset="75423772" timestamp="2019-10-08T16:56:34Z" user="Olyon" uid="1443767" lat="48.0356154" lon="-0.7430859"/>
 <node id="6860938029" visible="true" version="1" changeset="75423772" timestamp="2019-10-08T16:56:34Z" user="Olyon" uid="1443767" lat="48.0356593" lon="-0.7430823"/>
 <node id="6860938030" visible="true" version="1" changeset="75423772" timestamp="2019-10-08T16:56:34Z" user="Olyon" uid="1443767" lat="48.0355795" lon="-0.7431033"/>
 <node id="6860938031" visible="true" version="1" changeset="75423772" timestamp="2019-10-08T16:56:34Z" user="Olyon" uid="1443767" lat="48.0355464" lon="-0.7431409"/>
 <node id="6860938032" visible="true" version="1" changeset="75423772" timestamp="2019-10-08T16:56:34Z" user="Olyon" uid="1443767" lat="48.0355248" lon="-0.7432146"/>
 <node id="6860938033" visible="true" version="1" changeset="75423772" timestamp="2019-10-08T16:56:34Z" user="Olyon" uid="1443767" lat="48.0355176" lon="-0.7432898"/>
 <way id="732690092" visible="true" version="3" changeset="184447580" timestamp="2026-06-22T19:54:57Z" user="YBau" uid="19282503">
  <nd ref="6860938029"/>
  <nd ref="6860938028"/>
  <nd ref="6860938030"/>
  <nd ref="6860938031"/>
  <nd ref="6860938032"/>
  <nd ref="6860938033"/>
  <tag k="highway" v="raceway"/>
  <tag k="oneway" v="yes"/>
  <tag k="sport" v="karting"/>
  <tag k="surface" v="asphalt"/>
 </way>
</osm>
